{
"type": "FeatureCollection",
"name": "restaurants",
"crs": { "type": "name", "properties": { "name": "urn:ogc:def:crs:OGC:1.3:CRS84" } },
"features": [
{ "type": "Feature", "properties": { "amenity": "restaurant", "cuisine": "regional", "name": "Mr Bigs", "addr:city": null, "addr:street": null, "internet_access": null, "operator": null, "smoking": null, "opening_hours": null, "source": null, "wheelchair": null, "addr:postcode": null, "capacity": null, "delivery": null, "takeaway": null, "building": null, "building:levels": null, "level": null }, "geometry": { "type": "Point", "coordinates": [ 3.9108621, 7.4189015 ] } },
{ "type": "Feature", "properties": { "amenity": "restaurant", "cuisine": null, "name": "Tantalizers", "addr:city": null, "addr:street": null, "internet_access": null, "operator": null, "smoking": null, "opening_hours": null, "source": null, "wheelchair": null, "addr:postcode": null, "capacity": null, "delivery": null, "takeaway": null, "building": null, "building:levels": null, "level": null }, "geometry": { "type": "Point", "coordinates": [ 3.9103846, 7.4219761 ] } },
{ "type": "Feature", "properties": { "amenity": "bar", "cuisine": null, "name": "Plat'Num", "addr:city": "Ibadan", "addr:street": "Obafemi Awolowo Avenue", "internet_access": null, "operator": null, "smoking": null, "opening_hours": null, "source": null, "wheelchair": null, "addr:postcode": null, "capacity": null, "delivery": null, "takeaway": null, "building": null, "building:levels": null, "level": null }, "geometry": { "type": "Point", "coordinates": [ 3.9106009, 7.4170017 ] } },
{ "type": "Feature", "properties": { "amenity": "bar", "cuisine": null, "name": "411", "addr:city": "Ibadan", "addr:street": "Obafemi Awolowo Avenue", "internet_access": null, "operator": null, "smoking": null, "opening_hours": null, "source": null, "wheelchair": null, "addr:postcode": null, "capacity": null, "delivery": null, "takeaway": null, "building": null, "building:levels": null, "level": null }, "geometry": { "type": "Point", "coordinates": [ 3.8978739, 7.4192971 ] } },
{ "type": "Feature", "properties": { "amenity": "bar", "cuisine": null, "name": "TinTin", "addr:city": null, "addr:street": null, "internet_access": null, "operator": null, "smoking": null, "opening_hours": null, "source": null, "wheelchair": null, "addr:postcode": null, "capacity": null, "delivery": null, "takeaway": null, "building": null, "building:levels": null, "level": null }, "geometry": { "type": "Point", "coordinates": [ 3.9089846, 7.4376716 ] } },
{ "type": "Feature", "properties": { "amenity": "bar", "cuisine": null, "name": "Hideout", "addr:city": null, "addr:street": null, "internet_access": null, "operator": null, "smoking": null, "opening_hours": null, "source": null, "wheelchair": null, "addr:postcode": null, "capacity": null, "delivery": null, "takeaway": null, "building": null, "building:levels": null, "level": null }, "geometry": { "type": "Point", "coordinates": [ 3.9065005, 7.4332293 ] } },
{ "type": "Feature", "properties": { "amenity": "restaurant", "cuisine": null, "name": "Mr Biggs", "addr:city": "Mokola, Ibadam", "addr:street": null, "internet_access": null, "operator": null, "smoking": null, "opening_hours": null, "source": null, "wheelchair": null, "addr:postcode": null, "capacity": null, "delivery": null, "takeaway": null, "building": null, "building:levels": null, "level": null }, "geometry": { "type": "Point", "coordinates": [ 3.8904498, 7.4005054 ] } },
{ "type": "Feature", "properties": { "amenity": "restaurant", "cuisine": "regional", "name": "U&I", "addr:city": null, "addr:street": null, "internet_access": "no", "operator": "University of Ibadan", "smoking": "no", "opening_hours": null, "source": null, "wheelchair": null, "addr:postcode": null, "capacity": null, "delivery": null, "takeaway": null, "building": null, "building:levels": null, "level": null }, "geometry": { "type": "Point", "coordinates": [ 3.8947412, 7.438318 ] } },
{ "type": "Feature", "properties": { "amenity": "food_court", "cuisine": null, "name": "Mellamby's Foodcourt", "addr:city": null, "addr:street": null, "internet_access": "no", "operator": "Mellanby", "smoking": "no", "opening_hours": "24/7", "source": "bing", "wheelchair": "yes", "addr:postcode": null, "capacity": null, "delivery": null, "takeaway": null, "building": null, "building:levels": null, "level": null }, "geometry": { "type": "Point", "coordinates": [ 3.9001255, 7.4455596 ] } },
{ "type": "Feature", "properties": { "amenity": "food_court", "cuisine": null, "name": "Tedder's Foodcourt", "addr:city": null, "addr:street": null, "internet_access": "no", "operator": "Teddr HAll", "smoking": "no", "opening_hours": "24/7", "source": "bing", "wheelchair": "yes", "addr:postcode": null, "capacity": null, "delivery": null, "takeaway": null, "building": null, "building:levels": null, "level": null }, "geometry": { "type": "Point", "coordinates": [ 3.8988405, 7.4456153 ] } },
{ "type": "Feature", "properties": { "amenity": "restaurant", "cuisine": "pizza;french;regional", "name": "LADE'S CUISINE", "addr:city": "Ibadan", "addr:street": "Queen Elizabeth II Road", "internet_access": null, "operator": null, "smoking": null, "opening_hours": "Mo-Su 09:00-21:00", "source": null, "wheelchair": null, "addr:postcode": "234102", "capacity": "50", "delivery": "yes", "takeaway": "yes", "building": null, "building:levels": null, "level": null }, "geometry": { "type": "Point", "coordinates": [ 3.8936395, 7.4009014 ] } },
{ "type": "Feature", "properties": { "amenity": "restaurant", "cuisine": "chinese", "name": "Ibachi", "addr:city": null, "addr:street": null, "internet_access": null, "operator": null, "smoking": null, "opening_hours": null, "source": null, "wheelchair": null, "addr:postcode": null, "capacity": null, "delivery": null, "takeaway": null, "building": null, "building:levels": null, "level": null }, "geometry": { "type": "Point", "coordinates": [ 3.9153309, 7.4156183 ] } },
{ "type": "Feature", "properties": { "amenity": "restaurant", "cuisine": null, "name": "Oliver's cafe", "addr:city": null, "addr:street": null, "internet_access": null, "operator": null, "smoking": null, "opening_hours": null, "source": null, "wheelchair": null, "addr:postcode": null, "capacity": null, "delivery": null, "takeaway": null, "building": null, "building:levels": null, "level": null }, "geometry": { "type": "Point", "coordinates": [ 3.9145002, 7.4187154 ] } },
{ "type": "Feature", "properties": { "amenity": "food_court", "cuisine": null, "name": "Independence Hall", "addr:city": null, "addr:street": null, "internet_access": null, "operator": "Independence Hall", "smoking": "no", "opening_hours": "24/7", "source": null, "wheelchair": "yes", "addr:postcode": null, "capacity": null, "delivery": null, "takeaway": null, "building": null, "building:levels": null, "level": null }, "geometry": { "type": "Point", "coordinates": [ 3.896967990276071, 7.439505707845505 ] } },
{ "type": "Feature", "properties": { "amenity": "food_court", "cuisine": null, "name": "Nnmadi Azizkwe Hall's Food Court", "addr:city": null, "addr:street": null, "internet_access": null, "operator": "Nnmadi Azizkwe Hall", "smoking": "no", "opening_hours": "24/7", "source": null, "wheelchair": "yes", "addr:postcode": null, "capacity": null, "delivery": null, "takeaway": null, "building": "yes", "building:levels": null, "level": null }, "geometry": { "type": "Point", "coordinates": [ 3.896323163850097, 7.441122868798393 ] } },
{ "type": "Feature", "properties": { "amenity": "restaurant", "cuisine": null, "name": "Platimum", "addr:city": null, "addr:street": null, "internet_access": null, "operator": null, "smoking": null, "opening_hours": null, "source": null, "wheelchair": null, "addr:postcode": null, "capacity": null, "delivery": null, "takeaway": null, "building": "commercial", "building:levels": "2", "level": "1" }, "geometry": { "type": "Point", "coordinates": [ 3.91055135512259, 7.417043573132393 ] } }
]
}
